{
"type": "FeatureCollection",
"name": "crosswalk_scooter_1",
"crs": { "type": "name", "properties": { "name": "urn:ogc:def:crs:OGC:1.3:CRS84" } },
"features": [
{ "type": "Feature", "properties": { "label": "ego", "speed": 30.0, "duration": 13.0, "delay": null, "length": null, "width": null, "acceleration": null, "elevation": 33.5 }, "geometry": { "type": "LineString", "coordinates": [ [ 26.730241557440287, 58.384586318898897 ], [ 26.730527363068457, 58.384748183229085 ], [ 26.730599899878957, 58.384782343375925 ], [ 26.730638729405722, 58.384787795389748 ], [ 26.730682217599067, 58.384780251817247 ], [ 26.730722025226545, 58.384765843008658 ], [ 26.730798346431673, 58.384718909268585 ], [ 26.731063845197376, 58.38456211551452 ] ] } },
{ "type": "Feature", "properties": { "label": "scooter", "speed": 26.0, "duration": 5.0, "delay": "1.1", "length": "1.2", "width": "0.6", "acceleration": "-0.8", "elevation": 33.5 }, "geometry": { "type": "LineString", "coordinates": [ [ 26.730933267631247, 58.384575159742397 ], [ 26.730690934519583, 58.384738401613944 ] ] } },
{ "type": "Feature", "properties": { "label": "scooter", "speed": 10.0, "duration": 10.0, "delay": "5", "length": "1.2", "width": "0.6", "acceleration": "0.2", "elevation": 33.5 }, "geometry": { "type": "LineString", "coordinates": [ [ 26.730704156835472, 58.384729273486357 ], [ 26.730678047448944, 58.384746778569273 ], [ 26.730672575901529, 58.384749292935176 ], [ 26.730666889603082, 58.384751067897426 ], [ 26.730660699869578, 58.384752440297994 ], [ 26.730653195380253, 58.384753096827694 ], [ 26.730646281060991, 58.384753244735485 ], [ 26.730634620429694, 58.384753080842572 ], [ 26.730626227811314, 58.384752433710787 ], [ 26.730616815524087, 58.384750816396817 ], [ 26.730607214091123, 58.384748789797541 ], [ 26.730599014150474, 58.38474656788582 ], [ 26.730591378779589, 58.384743507235491 ], [ 26.730582050364113, 58.384738912144087 ], [ 26.730551673109311, 58.384722698048982 ], [ 26.73047246099123, 58.384679587390089 ] ] } }
]
}
