{
"type": "FeatureCollection",
"name": "crosswalk_cars_3",
"crs": { "type": "name", "properties": { "name": "urn:ogc:def:crs:OGC:1.3:CRS84" } },
"features": [
{ "type": "Feature", "properties": { "label": "ego", "speed": 35.0, "duration": 15.0, "delay": null, "length": null, "width": null, "acceleration": null, "elevation": 43.5 }, "geometry": { "type": "LineString", "coordinates": [ [ 26.726674851061567, 58.376282400851984 ], [ 26.726404127772735, 58.376452902679176 ], [ 26.726298191685721, 58.376511851427836 ], [ 26.726204162532959, 58.376539943157539 ], [ 26.726122439256734, 58.376553470127334 ], [ 26.726098137649572, 58.376551853394254 ], [ 26.726075641738348, 58.376546608998453 ], [ 26.726041445540421, 58.376523763859183 ], [ 26.725948871660826, 58.376438646617267 ], [ 26.725820999975333, 58.376326045195434 ] ] } },
{ "type": "Feature", "properties": { "label": "car_1", "speed": 20.0, "duration": 15.0, "delay": "2.5", "length": null, "width": null, "acceleration": null, "elevation": 43.5 }, "geometry": { "type": "LineString", "coordinates": [ [ 26.725733030378777, 58.376776262415184 ], [ 26.725803713638054, 58.376740898656863 ], [ 26.725887632627089, 58.376686825238401 ], [ 26.725922646051327, 58.376654365942009 ], [ 26.725943416661281, 58.376617068460206 ], [ 26.725945071366649, 58.376585750211518 ], [ 26.725945149974009, 58.37654460936983 ], [ 26.725928661594075, 58.376489680804681 ], [ 26.725907280483543, 58.376455854858044 ], [ 26.725829729800076, 58.37639194573152 ], [ 26.725781790478514, 58.376352259022603 ] ] } }
]
}
