{
"type": "FeatureCollection",
"name": "kroonuaia_jakobi",
"crs": {"type": "name", "properties": {"name": "urn:ogc:def:crs:OGC:1.3:CRS84"}},
"features": [
{"type": "Feature", "properties": {"label": "ego", "speed": 30.0, "duration": 31.0, "delay": 0.0, "length": null, "width": null, "acceleration": 0.0, "elevation": 46.0}, "geometry": {"type": "LineString", "coordinates": [[26.715298600497242, 58.38230482488893], [26.714861024278157, 58.382400066691964], [26.71450440621658, 58.38246569438522], [26.714024170017964, 58.38254751808758], [26.713686855328348, 58.38260293349136], [26.71352300832879, 58.38262360325223], [26.713282950913374, 58.38265611369542]]}},
{"type": "Feature", "properties": {"label": "car", "speed": 35.0, "duration": 20.0, "delay": 0.0, "length": 4.5, "width": 2.1, "acceleration": 0.0, "elevation": 0.0}, "geometry": {"type": "LineString", "coordinates": [[26.714787623301092, 58.382788331570346], [26.714707176788465, 58.382694308841245], [26.714584248669595, 58.38258912859269], [26.714477193666767, 58.38254090011335], [26.714390971023622, 58.38252087325777], [26.71428985696729, 58.38251247012968], [26.714211396443005, 58.38251866138415], [26.71406795135922, 58.38253829529147], [26.713824279322417, 58.38257965899612], [26.713590288940654, 58.38261629355412], [26.71342122509204, 58.38263873276958], [26.71290394402199, 58.382705509676725], [26.71269671299853, 58.38273554336487]]}},
{"type": "Feature", "properties": {"label": "car2", "speed": 25.0, "duration": 25.0, "delay": 0.0, "length": 4.5, "width": 2.0, "acceleration": 0.0, "elevation": 0.0}, "geometry": {"type": "LineString", "coordinates": [[26.714859803254004, 58.38286820771704], [26.71475927814964, 58.3827557668507], [26.714615615734562, 58.382605045294355], [26.71454927565152, 58.38251712984798], [26.71453858967409, 58.38249022000439], [26.714536384963257, 58.38246162217465], [26.714543473761335, 58.382441872401714], [26.714563458467573, 58.38242184837852], [26.714626487532218, 58.3824016627288], [26.71470700116898, 58.382384874229096], [26.714866943489106, 58.38235584299941], [26.715091521139918, 58.38230885293484], [26.71531203171404, 58.38226496421517], [26.715611349615394, 58.38221939849231]]}},
{"type": "Feature", "properties": {"label": "car3", "speed": 20.0, "duration": 25.0, "delay": 6.0, "length": 4.0, "width": 2.0, "acceleration": 0.0, "elevation": 0.0}, "geometry": {"type": "LineString", "coordinates": [[26.714108209641644, 58.38206442467411], [26.71417725400592, 58.38210366217782], [26.7142566941118, 58.382166046641736], [26.71435646174075, 58.38226870443905], [26.714394737730267, 58.382318395639054], [26.714412895526888, 58.382367760848986], [26.714407083017566, 58.3824040672524], [26.714386030949875, 58.382447482005354], [26.71434633387348, 58.382472448035664], [26.714276256134564, 58.382494291043876], [26.7141847430642, 58.3825173436172], [26.713958091917803, 58.382556084230515], [26.713616594376482, 58.38261309599589], [26.713264253608873, 58.38265978400491]]}}
]
}
