{
"type": "FeatureCollection",
"name": "left_turn_to_jaama",
"crs": { "type": "name", "properties": { "name": "urn:ogc:def:crs:OGC:1.3:CRS84" } },
"features": [
{ "type": "Feature", "properties": { "label": "ego", "speed": 40.0, "duration": 30.0, "delay": 0.0, "length": null, "width": null, "acceleration": null, "elevation": 37.2 }, "geometry": { "type": "LineString", "coordinates": [ [ 26.748477030376726, 58.381978699207103 ], [ 26.748259010598023, 58.382039315465086 ], [ 26.747948155421565, 58.382149022051678 ], [ 26.747702723542453, 58.382271299951931 ], [ 26.747552831439179, 58.382325297659122 ], [ 26.747486155834299, 58.38236614947823 ], [ 26.747434868823735, 58.382381701204658 ], [ 26.747325717971947, 58.38238839363266 ], [ 26.747207755523405, 58.382376369017607 ], [ 26.747107743047597, 58.382356717086147 ], [ 26.747009383654849, 58.382355942748362 ], [ 26.746888586632366, 58.382376752718834 ], [ 26.746860929499068, 58.382381394876532 ], [ 26.746697015496405, 58.382417297975834 ] ] } },
{ "type": "Feature", "properties": { "label": "Car1", "speed": 40.0, "duration": 20.0, "delay": 0.0, "length": 4.5, "width": 2.1, "acceleration": 0.1, "elevation": 37.2 }, "geometry": { "type": "LineString", "coordinates": [ [ 26.746994365642873, 58.382744958018655 ], [ 26.747105282847272, 58.382640292943883 ], [ 26.747246304369231, 58.382508490560191 ], [ 26.747341926908508, 58.382423285570979 ], [ 26.747434517390101, 58.38234930151097 ], [ 26.747573560145653, 58.38225272745899 ], [ 26.747710541511058, 58.382174004322124 ], [ 26.74784596607217, 58.382111360579316 ], [ 26.748035097477445, 58.382048358357196 ] ] } },
{ "type": "Feature", "properties": { "label": "Car2", "speed": 30.0, "duration": 23.0, "delay": 1.6, "length": null, "width": null, "acceleration": 0.2, "elevation": 37.2 }, "geometry": { "type": "LineString", "coordinates": [ [ 26.746964661434138, 58.382777237226676 ], [ 26.747236678388276, 58.382518046226423 ], [ 26.747369406410705, 58.382398412275037 ], [ 26.74745385947287, 58.382331658973563 ], [ 26.747566530898258, 58.382253996808721 ], [ 26.747737117833399, 58.382160003623511 ], [ 26.747851037884821, 58.382107331951026 ], [ 26.748001957549935, 58.382057542666949 ] ] } },
{ "type": "Feature", "properties": { "label": "Car3", "speed": 40.0, "duration": 21.0, "delay": 6.0, "length": null, "width": null, "acceleration": -0.3, "elevation": 37.2 }, "geometry": { "type": "LineString", "coordinates": [ [ 26.746917184617079, 58.382819648418419 ], [ 26.747131143357198, 58.382617110127519 ], [ 26.747254079960488, 58.382500413216611 ], [ 26.747269522266979, 58.382478374367807 ], [ 26.747274876119498, 58.382461703344518 ], [ 26.747276555712073, 58.382447318842019 ], [ 26.747271162006424, 58.382427567983378 ], [ 26.747260787175936, 58.382406820615223 ], [ 26.747243849135451, 58.382391733104186 ], [ 26.747224337476165, 58.382382276386025 ], [ 26.747197296599815, 58.382374155775203 ], [ 26.747165168654302, 58.382366385404829 ], [ 26.747132863005152, 58.382360826289833 ], [ 26.747094656236452, 58.382355946030337 ], [ 26.747046945726115, 58.382354949359723 ], [ 26.747003296319164, 58.382356624569454 ], [ 26.746888586632366, 58.382376752718834 ], [ 26.746614608437945, 58.382433971456159 ] ] } },
{ "type": "Feature", "properties": { "label": "Car4", "speed": 35.0, "duration": 25.0, "delay": 10.5, "length": null, "width": null, "acceleration": 0.4, "elevation": 37.2 }, "geometry": { "type": "LineString", "coordinates": [ [ 26.746947854632886, 58.382795258425709 ], [ 26.747120564677452, 58.38262966266953 ], [ 26.747212702837842, 58.3825357030276 ], [ 26.747307425617826, 58.382447942087751 ], [ 26.747408642304464, 58.382362616635071 ], [ 26.74750679758947, 58.382300903005827 ], [ 26.747583233966846, 58.382248118663917 ], [ 26.747754975805648, 58.382150973386949 ], [ 26.747879577332437, 58.382096048257715 ], [ 26.748038730861076, 58.382044058180242 ] ] } }
]
}
