{
"type": "FeatureCollection",
"name": "louna_circle_levels",
"crs": { "type": "name", "properties": { "name": "urn:ogc:def:crs:OGC:1.3:CRS84" } },
"features": [
{ "type": "Feature", "properties": { "label": "motorbike", "speed": 56.0, "duration": 15.0, "delay": 1.7, "length": 2.0, "width": 1.0, "acceleration": 0.3, "elevation": 85.5 }, "geometry": { "type": "LineString", "coordinates": [ [ 26.683222930766114, 58.356758483145811 ], [ 26.682872380132814, 58.356955856428037 ], [ 26.682695097642821, 58.357067129566907 ], [ 26.682615466023133, 58.357125850290572 ], [ 26.68247208180529, 58.35722329662056 ], [ 26.682436754198882, 58.357242622337729 ], [ 26.682207593941545, 58.357370512250277 ], [ 26.681452118428115, 58.357786676648217 ] ] } },
{ "type": "Feature", "properties": { "label": "car", "speed": 47.0, "duration": 20.0, "delay": 1.4, "length": 4.0, "width": 2.1, "acceleration": 0.0, "elevation": 85.4 }, "geometry": { "type": "LineString", "coordinates": [ [ 26.683245301476788, 58.356767999213794 ], [ 26.682951708402388, 58.356936363551348 ], [ 26.682687696069301, 58.357088935404157 ], [ 26.682533707797997, 58.357176618170534 ], [ 26.682195126814822, 58.357367037778069 ], [ 26.681576066469425, 58.357708728600677 ] ] } },
{ "type": "Feature", "properties": { "label": "ego", "speed": 40.0, "duration": 30.0, "delay": 0.0, "length": null, "width": null, "acceleration": null, "elevation": 78.8 }, "geometry": { "type": "LineString", "coordinates": [ [ 26.681572092188027, 58.356781064328345 ], [ 26.681880686745501, 58.357043583995328 ], [ 26.681965673851114, 58.357098430269808 ], [ 26.682082934354693, 58.357122258658244 ], [ 26.682325139053155, 58.357119188165015 ], [ 26.682435023162, 58.357147216585254 ], [ 26.68255920092653, 58.357211351383278 ], [ 26.682620062132152, 58.357303111714238 ], [ 26.682632515044563, 58.357466681660142 ], [ 26.682661409936223, 58.357542933346387 ], [ 26.683262181144563, 58.357902458202076 ] ] } },
{ "type": "Feature", "properties": { "label": "car_2_a", "speed": 31.0, "duration": 15.0, "delay": 5.0, "length": null, "width": null, "acceleration": -1.0, "elevation": 78.7 }, "geometry": { "type": "LineString", "coordinates": [ [ 26.683118022695503, 58.356963204412885 ], [ 26.682694709171169, 58.357133664684362 ] ] } },
{ "type": "Feature", "properties": { "label": "car_2_b", "speed": 5.0, "duration": 28.0, "delay": 15.0, "length": null, "width": null, "acceleration": 1.0, "elevation": 78.7 }, "geometry": { "type": "LineString", "coordinates": [ [ 26.682694709171169, 58.357133664682337 ], [ 26.682657170048017, 58.357148422888066 ], [ 26.682618032371071, 58.357164912091321 ], [ 26.682585947776268, 58.35717975371103 ], [ 26.682562127627907, 58.357192138193227 ], [ 26.682550889701563, 58.357199327276405 ], [ 26.682534436315105, 58.357213831610146 ], [ 26.682529431107501, 58.357221535473961 ], [ 26.682528839609869, 58.357240303409228 ], [ 26.682536848877621, 58.357280274350288 ], [ 26.682539913639179, 58.357307894443252 ], [ 26.682537196821592, 58.357366986663337 ], [ 26.682507862686634, 58.357422034928845 ], [ 26.682440341164437, 58.357477546204294 ], [ 26.682338409082181, 58.357518732361839 ], [ 26.682212117689929, 58.357538206433119 ] ] } }
]
}
