{
"type": "FeatureCollection",
"name": "naituse_veski_2",
"crs": { "type": "name", "properties": { "name": "urn:ogc:def:crs:OGC:1.3:CRS84" } },
"features": [
{ "type": "Feature", "properties": { "label": "ego", "speed": 26.0, "duration": 34.0, "delay": 0.0, "length": 4.0, "width": 2.0, "acceleration": 0.0, "elevation": 62.9 }, "geometry": { "type": "LineString", "coordinates": [ [ 26.708900224377313, 58.379013264158509 ], [ 26.709210912972814, 58.379066384207356 ], [ 26.709597911845322, 58.379148645568939 ], [ 26.710285165889477, 58.379305054486295 ], [ 26.710760031863288, 58.379409875267491 ], [ 26.711082853049156, 58.379486257176929 ], [ 26.711411998013332, 58.379555265814609 ], [ 26.711654305250292, 58.379592642162891 ] ] } },
{ "type": "Feature", "properties": { "label": null, "speed": 20.0, "duration": 25.0, "delay": 2.0, "length": 4.0, "width": 2.0, "acceleration": 0.0, "elevation": 64.8 }, "geometry": { "type": "LineString", "coordinates": [ [ 26.709587817106154, 58.379572281962361 ], [ 26.709790970017437, 58.379333014159641 ], [ 26.709969486933634, 58.379117691353166 ], [ 26.710239408660101, 58.378804542284939 ] ] } },
{ "type": "Feature", "properties": { "label": "ped", "speed": 7.0, "duration": 30.0, "delay": 5.5, "length": 1.0, "width": 0.75, "acceleration": 0.0, "elevation": 64.8 }, "geometry": { "type": "LineString", "coordinates": [ [ 26.711195543546438, 58.379831294312211 ], [ 26.711161560375974, 58.379747872763794 ], [ 26.711150211696605, 58.379667589488328 ], [ 26.711154409913988, 58.379587880738036 ], [ 26.711182285533823, 58.379524859623189 ], [ 26.711199593150678, 58.379492372714772 ], [ 26.711201303363868, 58.379481026785221 ], [ 26.711192009429009, 58.379472176531323 ], [ 26.711133729533618, 58.379453509610983 ], [ 26.711055976740809, 58.379428018151344 ], [ 26.710703990968394, 58.379353160365227 ] ] } },
{ "type": "Feature", "properties": { "label": "car", "speed": 30.0, "duration": 25.0, "delay": 6.5, "length": 4.0, "width": 2.0, "acceleration": 0.0, "elevation": 64.8 }, "geometry": { "type": "LineString", "coordinates": [ [ 26.710701191987315, 58.379427137553996 ], [ 26.710298832281701, 58.379341261229612 ], [ 26.710012695949672, 58.379276124873925 ], [ 26.709973082317621, 58.379264271556394 ], [ 26.709940678075217, 58.379250429540235 ], [ 26.709927806007546, 58.379242144460754 ], [ 26.709918343483245, 58.379233244642087 ], [ 26.709915162233184, 58.379216915265232 ], [ 26.709915771325104, 58.379199820517925 ], [ 26.709924014792453, 58.379177978904842 ], [ 26.709937888321463, 58.379155019187266 ], [ 26.710220742702948, 58.378825998484992 ] ] } }
]
}
