{
"type": "FeatureCollection",
"name": "raekoja_crosswalk",
"crs": {"type": "name", "properties": {"name": "urn:ogc:def:crs:EPSG::4979"}},
"features": [
{"type": "Feature", "properties": {"label": "ego", "speed": 30.0, "duration": 23.0, "delay": 0.0, "length": null, "width": null, "acceleration": 0.0, "elevation": 35.4}, "geometry": {"type": "LineString", "coordinates": [[26.72552463465871, 58.38013534926929], [26.725395505767175, 58.38025599562887], [26.725244478429524, 58.380409433807856], [26.725082041662557, 58.38060257014918], [26.724962994878958, 58.3807833712933], [26.724834889325585, 58.380975774298435]]}},
{"type": "Feature", "properties": {"label": "cyclist", "speed": 18.0, "duration": 25.0, "delay": 4.0, "length": 2.5, "width": 0.7, "acceleration": 0.0, "elevation": 35.4}, "geometry": {"type": "LineString", "coordinates": [[26.7253872328905, 58.380681143063185], [26.725322883802004, 58.38066825631136], [26.72529318848147, 58.380664612137984], [26.72527135682475, 58.3806631768519], [26.725236247679828, 58.380665590247595], [26.725210735789624, 58.38066922479533], [26.725187141141603, 58.380674244478755], [26.725156050112332, 58.380681801004215], [26.72513337734336, 58.3806870386758], [26.725108750594778, 58.3806904166248], [26.725076333641955, 58.38069253481403], [26.725009141769448, 58.380689691133064], [26.72490356088858, 58.38068196268275], [26.724786990786747, 58.380672567310164]]}}
]
}
