{
"type": "FeatureCollection",
"name": "raudtee_kabeli_1",
"crs": {"type": "name", "properties": {"name": "urn:ogc:def:crs:OGC:1.3:CRS84"}},
"features": [
{"type": "Feature", "properties": {"label": null, "speed": 20.0, "duration": 25.0, "delay": 0.2, "length": 4.0, "width": 2.0, "acceleration": 0.0, "elevation": 62.7}, "geometry": {"type": "LineString", "coordinates": [[26.715112906468434, 58.36011751090647], [26.715402570520325, 58.36010135756142], [26.715826208850448, 58.36007850988472], [26.716498704030364, 58.360041142139615], [26.71703826919035, 58.360005065706545]]}},
{"type": "Feature", "properties": {"label": null, "speed": 25.0, "duration": 20.0, "delay": 5.0, "length": 4.0, "width": 2.0, "acceleration": 0.0, "elevation": 62.7}, "geometry": {"type": "LineString", "coordinates": [[26.717155813801, 58.36003175664205], [26.716830078741886, 58.36005406020738], [26.716648770387664, 58.360072518927545], [26.716452926400837, 58.36009205520508], [26.71629554145734, 58.36009847975871], [26.715949531498502, 58.360104310621026], [26.715119471829293, 58.3601457975114]]}},
{"type": "Feature", "properties": {"label": null, "speed": 25.0, "duration": 26.0, "delay": 0.0, "length": 4.0, "width": 2.0, "acceleration": 0.0, "elevation": 62.7}, "geometry": {"type": "LineString", "coordinates": [[26.716316531391556, 58.360427624994124], [26.716229857939755, 58.36027043658869], [26.716168212760973, 58.36016469600814], [26.716162847976467, 58.36012973493409], [26.716183283019767, 58.360094692177675], [26.71624026215324, 58.36007196605334], [26.716332976522107, 58.36005312236462], [26.716957072096786, 58.36001370968363]]}},
{"type": "Feature", "properties": {"label": "ego", "speed": 30.0, "duration": 25.0, "delay": 0.0, "length": 4.0, "width": 2.0, "acceleration": 0.0, "elevation": 62.7}, "geometry": {"type": "LineString", "coordinates": [[26.715632699688438, 58.359360161084545], [26.715996046060262, 58.35981762137298], [26.71613002977066, 58.36001246371951], [26.71620696455734, 58.36013971162256], [26.716413896100146, 58.36047900145373]]}}
]
}
