{
"type": "FeatureCollection",
"name": "raudtee_kabeli_3",
"crs": {"type": "name", "properties": {"name": "urn:ogc:def:crs:EPSG::4979"}},
"features": [
{"type": "Feature", "properties": {"label": null, "speed": 20.0, "duration": 25.0, "delay": 0.0, "length": 4.0, "width": 2.0, "acceleration": 0.0, "elevation": 62.7}, "geometry": {"type": "LineString", "coordinates": [[26.715112906468434, 58.36011751090647], [26.715402570520325, 58.36010135756142], [26.715826208850448, 58.36007850988472], [26.716498704030364, 58.360041142139615], [26.71703826919035, 58.360005065706545]]}},
{"type": "Feature", "properties": {"label": null, "speed": 25.0, "duration": 20.0, "delay": 2.0, "length": 4.0, "width": 2.0, "acceleration": 0.0, "elevation": 62.7}, "geometry": {"type": "LineString", "coordinates": [[26.717155813801, 58.36003175664205], [26.716830078741886, 58.36005406020738], [26.716648770387664, 58.360072518927545], [26.716452926400837, 58.36009205520508], [26.71629554145734, 58.36009847975871], [26.715949531498502, 58.360104310621026], [26.715119471829293, 58.3601457975114]]}},
{"type": "Feature", "properties": {"label": null, "speed": 25.0, "duration": 28.0, "delay": 8.0, "length": 4.0, "width": 2.0, "acceleration": 0.0, "elevation": 62.7}, "geometry": {"type": "LineString", "coordinates": [[26.71741143986969, 58.36001711717644], [26.717056931444972, 58.36003986630438], [26.716702562951735, 58.360064435174365], [26.716400721597484, 58.36009517937572], [26.716289813685133, 58.360096933173004], [26.71620264197058, 58.360091494498676], [26.71614390441587, 58.36006478154751], [26.716095498534354, 58.360022043047884], [26.716045049057286, 58.35996779784383], [26.715887851294887, 58.35977418350036], [26.71570575258373, 58.35952760347368]]}},
{"type": "Feature", "properties": {"label": null, "speed": 15.0, "duration": 25.0, "delay": 2.0, "length": 4.0, "width": 2.0, "acceleration": 0.0, "elevation": 62.7}, "geometry": {"type": "LineString", "coordinates": [[26.715883348007004, 58.35965573785569], [26.7160855777101, 58.35993836335195], [26.716210615018554, 58.36011989627874], [26.716286887787575, 58.3602690326988], [26.716446006633948, 58.360532514853]]}},
{"type": "Feature", "properties": {"label": "ego", "speed": 35.0, "duration": 32.0, "delay": 0.0, "length": 4.0, "width": 2.0, "acceleration": 0.0, "elevation": 62.7}, "geometry": {"type": "LineString", "coordinates": [[26.716451245610713, 58.36064547369874], [26.71615548000614, 58.36013991533271], [26.71615548000614, 58.36013991533067], [26.71615535669113, 58.36010830688114], [26.71617380379629, 58.36007751882281], [26.71624159473613, 58.3600566223651], [26.71645323604536, 58.36004117331165], [26.71690907397031, 58.36001508265752]]}}
]
}
