{
"type": "FeatureCollection",
"name": "raudtee_kabeli_2",
"crs": {"type": "name", "properties": {"name": "urn:ogc:def:crs:OGC:1.3:CRS84"}},
"features": [
{"type": "Feature", "properties": {"label": null, "speed": 25.0, "duration": 20.0, "delay": 2.0, "length": 4.0, "width": 2.0, "acceleration": 0.0, "elevation": 62.7}, "geometry": {"type": "LineString", "coordinates": [[26.717155813801, 58.36003175664205], [26.716830078741886, 58.36005406020738], [26.716648770387664, 58.360072518927545], [26.716452926400837, 58.36009205520508], [26.71629554145734, 58.36009847975871], [26.716190342835148, 58.360082382413346], [26.71610178034291, 58.360041710113045], [26.715973126014287, 58.35988497370044], [26.71564036320444, 58.35944683585949]]}},
{"type": "Feature", "properties": {"label": null, "speed": 25.0, "duration": 26.0, "delay": 6.5, "length": 4.0, "width": 2.0, "acceleration": 0.0, "elevation": 62.7}, "geometry": {"type": "LineString", "coordinates": [[26.716316531391556, 58.360427624994124], [26.716229857939755, 58.36027043658869], [26.716168212760973, 58.36016469600814], [26.716162847976467, 58.36012973493409], [26.716183283019767, 58.360094692177675], [26.71624026215324, 58.36007196605334], [26.716332976522107, 58.36005312236462], [26.716957072096786, 58.36001370968363]]}},
{"type": "Feature", "properties": {"label": "ego", "speed": 30.0, "duration": 31.0, "delay": 0.0, "length": 4.0, "width": 2.0, "acceleration": 0.0, "elevation": 62.7}, "geometry": {"type": "LineString", "coordinates": [[26.714774350167808, 58.36013731187709], [26.715017763275966, 58.36012043958711], [26.7165005782762, 58.360043506885674], [26.716891707250216, 58.36001690149732]]}},
{"type": "Feature", "properties": {"label": "car", "speed": 25.0, "duration": 25.0, "delay": 1.0, "length": 4.0, "width": 2.0, "acceleration": 0.0, "elevation": 62.7}, "geometry": {"type": "LineString", "coordinates": [[26.715853518023867, 58.35963778413862], [26.71606011570379, 58.35991679382161], [26.716214279147824, 58.36013892856381], [26.71635353298145, 58.36037541077031], [26.7165143010103, 58.360660072477714]]}},
{"type": "Feature", "properties": {"label": null, "speed": 25.0, "duration": 25.0, "delay": 7.0, "length": 4.0, "width": 2.0, "acceleration": 0.0, "elevation": 62.7}, "geometry": {"type": "LineString", "coordinates": [[26.716448687488246, 58.36063877778696], [26.716338033737987, 58.36045915628193], [26.716126224427107, 58.36007818655569], [26.715931491349632, 58.35982208500331], [26.715740026451478, 58.35956004338107]]}}
]
}
