{
"type": "FeatureCollection",
"name": "right_hand_rule_1",
"crs": { "type": "name", "properties": { "name": "urn:ogc:def:crs:OGC:1.3:CRS84" } },
"features": [
{ "type": "Feature", "properties": { "label": "ego", "speed": 30.0, "duration": 22.0, "delay": 0.0, "length": null, "width": null, "acceleration": null, "elevation": 50.5 }, "geometry": { "type": "LineString", "coordinates": [ [ 26.737194752790437, 58.388471210142242 ], [ 26.73737180849724, 58.388567053534935 ], [ 26.737566390701183, 58.388680753346925 ], [ 26.737816439433754, 58.388818586217617 ] ] } },
{ "type": "Feature", "properties": { "label": "car1_a", "speed": 27.0, "duration": 8.0, "delay": 0.0, "length": 4.0, "width": 2.0, "acceleration": -0.9, "elevation": 50.5 }, "geometry": { "type": "LineString", "coordinates": [ [ 26.738142548803395, 58.388524084344517 ], [ 26.73771424072239, 58.38867326654735 ] ] } },
{ "type": "Feature", "properties": { "label": "car1_b", "speed": 0.0, "duration": 18.0, "delay": 8.0, "length": 4.0, "width": 2.0, "acceleration": 0.7, "elevation": 50.5 }, "geometry": { "type": "LineString", "coordinates": [ [ 26.73771424072239, 58.388673266545339 ], [ 26.737328950666779, 58.388816793380819 ] ] } }
]
}
