{
"type": "FeatureCollection",
"name": "riia_turu",
"crs": {"type": "name", "properties": {"name": "urn:ogc:def:crs:OGC:1.3:CRS84"}},
"features": [
{"type": "Feature", "properties": {"label": "a", "speed": 25.0, "duration": 30.0, "delay": 0.0, "length": 5.0, "width": 2.0, "acceleration": 0.0, "elevation": 35.8}, "geometry": {"type": "LineString", "coordinates": [[26.727716222654205, 58.37864839131648], [26.728156831092708, 58.378410873406274], [26.728763929042962, 58.37806074626105], [26.72883506607311, 58.378020208089445], [26.72894335799434, 58.3779798758653], [26.72903635586535, 58.37796338093577], [26.729131078402023, 58.37795685346504], [26.72920453203842, 58.37797078956358], [26.7292696784736, 58.378000410103404], [26.72967454449539, 58.37819884279603], [26.729930436417636, 58.37833043001508]]}},
{"type": "Feature", "properties": {"label": "b", "speed": 25.0, "duration": 30.0, "delay": 0.0, "length": 4.0, "width": 1.9, "acceleration": 0.0, "elevation": 35.8}, "geometry": {"type": "LineString", "coordinates": [[26.730091401624858, 58.37743409293875], [26.729590041655825, 58.37772293947521], [26.72888224933544, 58.37812524594807], [26.728134620794453, 58.378554411114266], [26.727461685383968, 58.3789399568599]]}},
{"type": "Feature", "properties": {"label": "c", "speed": 25.0, "duration": 30.0, "delay": 0.0, "length": 3.0, "width": 1.0, "acceleration": 0.0, "elevation": 35.8}, "geometry": {"type": "LineString", "coordinates": [[26.73011897797236, 58.3785362598764], [26.730072172146155, 58.37849008396163], [26.729990800154336, 58.3784211794347], [26.729881033307528, 58.3783564977589], [26.729614352146463, 58.37823314472369], [26.729247780488656, 58.378061905280084], [26.7291492866827, 58.378007486585176], [26.729119553794995, 58.377955599242554], [26.7291136929525, 58.37786768577655], [26.729168517378017, 58.37780098454155], [26.729256379034602, 58.377755086265594], [26.729912585559756, 58.37737539039033], [26.73047234234563, 58.377053779129994], [26.730888835543006, 58.376812765117755]]}},
{"type": "Feature", "properties": {"label": "d", "speed": 20.0, "duration": 30.0, "delay": 0.0, "length": 4.0, "width": 2.0, "acceleration": 0.0, "elevation": 35.8}, "geometry": {"type": "LineString", "coordinates": [[26.729984717867445, 58.3784957389108], [26.72992309570324, 58.37845669154033], [26.729742168001295, 58.37837097299787], [26.729428248914687, 58.37821561536444], [26.729428248914687, 58.378215615362436], [26.729100381543727, 58.378064557041185], [26.728235102997946, 58.3776388612414]]}},
{"type": "Feature", "properties": {"label": "e", "speed": 30.0, "duration": 30.0, "delay": 3.0, "length": 4.1, "width": 2.1, "acceleration": 0.0, "elevation": 35.8}, "geometry": {"type": "LineString", "coordinates": [[26.728217393938795, 58.37753319313358], [26.72867255318572, 58.377754064007064], [26.72882587161051, 58.37782781985557], [26.72890259749521, 58.37787169937503], [26.728929593967834, 58.37792514593177], [26.728918225482108, 58.37801192713456], [26.728877003052762, 58.37806983366556], [26.728689476106236, 58.37818139052783], [26.728254086401616, 58.378449312287145], [26.72758429965579, 58.378826287707085]]}},
{"type": "Feature", "properties": {"label": "f", "speed": 27.0, "duration": 30.0, "delay": 1.0, "length": 8.0, "width": 2.5, "acceleration": 0.0, "elevation": 35.8}, "geometry": {"type": "LineString", "coordinates": [[26.727778694516903, 58.37721766002313], [26.728104079155447, 58.37735097480295], [26.7287248129074, 58.37761738696819], [26.728923880608363, 58.37769166518968], [26.729036561396104, 58.37772026943199], [26.729121870508727, 58.37772744919367], [26.729228525783924, 58.377715164043664], [26.72931279478073, 58.377684349164575], [26.729485686545903, 58.37758060759229], [26.72991618209984, 58.37733579602629], [26.73084235111401, 58.37680275493223]]}},
{"type": "Feature", "properties": {"label": "g", "speed": 26.0, "duration": 30.0, "delay": 1.0, "length": 7.0, "width": 2.0, "acceleration": 0.0, "elevation": 35.8}, "geometry": {"type": "LineString", "coordinates": [[26.727643549932058, 58.37718421960831], [26.728896737207986, 58.37778378589856], [26.72936829824675, 58.378007305069275], [26.729916515866048, 58.37827370261894], [26.73000950086922, 58.37833073970137], [26.730112242863783, 58.37840307485071]]}},
{"type": "Feature", "properties": {"label": "ego", "speed": 10.0, "duration": 33.0, "delay": 0.0, "length": null, "width": null, "acceleration": 0.0, "elevation": 35.8}, "geometry": {"type": "LineString", "coordinates": [[26.728185740879525, 58.37834928244511], [26.728283412283616, 58.37829572866333], [26.728676054619985, 58.37806962814001], [26.729253372110954, 58.377753149686335], [26.729929683994815, 58.37736453872195]]}}
]
}
