{
"type": "FeatureCollection",
"name": "roosi_straight",
"crs": {"type": "name", "properties": {"name": "urn:ogc:def:crs:OGC:1.3:CRS84"}},
"features": [
{"type": "Feature", "properties": {"label": null, "speed": 20.0, "duration": 25.0, "delay": 0.0, "length": 4.0, "width": 2.0, "acceleration": 0.0, "elevation": 53.0}, "geometry": {"type": "LineString", "coordinates": [[26.73950975537491, 58.389265568311586], [26.73947812433007, 58.38930121465789], [26.739410020110917, 58.38933880920719], [26.73931602449104, 58.38937171412264], [26.738983995766038, 58.389469170866086], [26.73866114413302, 58.38954195253542], [26.738299353592954, 58.389627807200675], [26.738037348699752, 58.389698116560254]]}},
{"type": "Feature", "properties": {"label": "ego", "speed": 25.0, "duration": 22.0, "delay": 0.0, "length": 4.0, "width": 2.0, "acceleration": 0.0, "elevation": 53.0}, "geometry": {"type": "LineString", "coordinates": [[26.738267909422508, 58.38907221982793], [26.738583951716404, 58.389277271967586], [26.73868614036703, 58.389349677397476], [26.73868614036703, 58.389349677395465], [26.73880843274163, 58.38943796968571], [26.73902736225152, 58.389600112225835], [26.739300660922645, 58.38980995219887]]}},
{"type": "Feature", "properties": {"label": "slow", "speed": 1.0, "duration": 3.5, "delay": 0.0, "length": 4.0, "width": 2.0, "acceleration": 0.0, "elevation": 53.0}, "geometry": {"type": "LineString", "coordinates": [[26.739118130240403, 58.38942875373244], [26.739007097253896, 58.38946019187697]]}},
{"type": "Feature", "properties": {"label": "incoming", "speed": 20.0, "duration": 25.0, "delay": 5.0, "length": 4.0, "width": 2.0, "acceleration": 0.0, "elevation": 53.0}, "geometry": {"type": "LineString", "coordinates": [[26.739308707944936, 58.38986081628455], [26.739075311636626, 58.3896809705134], [26.73896667163966, 58.38960450480933], [26.738843293204706, 58.38951880411681], [26.73857102098714, 58.38932626081289], [26.738394371686102, 58.38919872253681]]}},
{"type": "Feature", "properties": {"label": null, "speed": 15.0, "duration": 25.0, "delay": 0.0, "length": 4.0, "width": 2.0, "acceleration": 0.0, "elevation": 53.0}, "geometry": {"type": "LineString", "coordinates": [[26.738260346362676, 58.38961428371612], [26.738297620117148, 58.38960632093841], [26.738437388528105, 58.389571486080825], [26.738601058748017, 58.389532158730276]]}}
]
}
