{
"type": "FeatureCollection",
"name": "roosi_right",
"crs": {"type": "name", "properties": {"name": "urn:ogc:def:crs:OGC:1.3:CRS84"}},
"features": [
{"type": "Feature", "properties": {"label": null, "speed": 20.0, "duration": 25.0, "delay": 0.0, "length": 4.0, "width": 2.0, "acceleration": 0.0, "elevation": 53.0}, "geometry": {"type": "LineString", "coordinates": [[26.73950975537491, 58.389265568311586], [26.73947812433007, 58.38930121465789], [26.739410020110917, 58.38933880920719], [26.73931602449104, 58.38937171412264], [26.738983995766038, 58.389469170866086], [26.73866114413302, 58.38954195253542], [26.738299353592954, 58.389627807200675], [26.738037348699752, 58.389698116560254]]}},
{"type": "Feature", "properties": {"label": "ego", "speed": 25.0, "duration": 16.0, "delay": 0.0, "length": 4.0, "width": 2.0, "acceleration": 0.0, "elevation": 53.0}, "geometry": {"type": "LineString", "coordinates": [[26.738267909422508, 58.38907221982793], [26.738583951716404, 58.389277271967586], [26.73868614036703, 58.389349677397476], [26.73868614036703, 58.389349677395465], [26.73880843274163, 58.38943796968571], [26.738840542931943, 58.38945126786896], [26.738874099606466, 58.38945462752913], [26.738903834370486, 58.38945165844864], [26.73893675730799, 58.389446872583626], [26.73903235943318, 58.38942034421823], [26.739124461843517, 58.38939562212256]]}},
{"type": "Feature", "properties": {"label": null, "speed": 1.0, "duration": 7.0, "delay": 0.0, "length": 4.0, "width": 2.0, "acceleration": 0.0, "elevation": 53.0}, "geometry": {"type": "LineString", "coordinates": [[26.739118130240403, 58.38942875373244], [26.739007097253896, 58.38946019187697]]}}
]
}
