{
"type": "FeatureCollection",
"name": "roosi_left",
"crs": {"type": "name", "properties": {"name": "urn:ogc:def:crs:OGC:1.3:CRS84"}},
"features": [
{"type": "Feature", "properties": {"label": "car", "speed": 20.0, "duration": 25.0, "delay": 0.0, "length": 4.0, "width": 2.0, "acceleration": 0.0, "elevation": 53.0}, "geometry": {"type": "LineString", "coordinates": [[26.73950975537491, 58.389265568311586], [26.73947812433007, 58.38930121465789], [26.739410020110917, 58.38933880920719], [26.73931602449104, 58.38937171412264], [26.738983995766038, 58.389469170866086], [26.73866114413302, 58.38954195253542], [26.738299353592954, 58.389627807200675], [26.738037348699752, 58.389698116560254]]}},
{"type": "Feature", "properties": {"label": "ego", "speed": 25.0, "duration": 23.5, "delay": 0.0, "length": 5.0, "width": 2.2, "acceleration": 0.0, "elevation": 53.0}, "geometry": {"type": "LineString", "coordinates": [[26.738267909422508, 58.38907221982793], [26.738583951716404, 58.389277271967586], [26.73868614036703, 58.389349677397476], [26.73868614036703, 58.389349677395465], [26.73880843274163, 58.38943796968571], [26.738818363169294, 58.38946718015225], [26.738788824599315, 58.389497362272635], [26.73868660013662, 58.38953353590282], [26.738590986049687, 58.38955824074732], [26.73852093761052, 58.389574025072086]]}},
{"type": "Feature", "properties": {"label": "cyclist", "speed": 1.0, "duration": 3.5, "delay": 0.0, "length": 2.5, "width": 1.2, "acceleration": 0.0, "elevation": 53.0}, "geometry": {"type": "LineString", "coordinates": [[26.739118130240403, 58.38942875373244], [26.739007097253896, 58.38946019187697]]}},
{"type": "Feature", "properties": {"label": "truck", "speed": 20.0, "duration": 25.0, "delay": 2.5, "length": 6.0, "width": 2.4, "acceleration": 0.0, "elevation": 53.0}, "geometry": {"type": "LineString", "coordinates": [[26.739308707944936, 58.38986081628455], [26.739075311636626, 58.3896809705134], [26.73896667163966, 58.38960450480933], [26.738843293204706, 58.38951880411681], [26.73857102098714, 58.38932626081289], [26.738394371686102, 58.38919872253681]]}},
{"type": "Feature", "properties": {"label": "car", "speed": 15.0, "duration": 25.0, "delay": 0.0, "length": 4.0, "width": 2.0, "acceleration": 0.0, "elevation": 53.0}, "geometry": {"type": "LineString", "coordinates": [[26.738260346362676, 58.38961428371612], [26.73830182926168, 58.38960260980781], [26.73843481834632, 58.38956858636685], [26.73859848855564, 58.389529259019504]]}}
]
}
