{
"type": "FeatureCollection",
"name": "routing_graph_1",
"crs": { "type": "name", "properties": { "name": "urn:ogc:def:crs:OGC:1.3:CRS84" } },
"features": [
{ "type": "Feature", "properties": { "label": "cyclist_1", "speed": 15.0, "duration": 30.0, "delay": null, "length": 1.9, "width": 0.6, "acceleration": null, "elevation": 62.4 }, "geometry": { "type": "LineString", "coordinates": [ [ 26.707386620041188, 58.374017001279206 ], [ 26.707449434525905, 58.373934792882984 ], [ 26.70748764523211, 58.373875571940893 ], [ 26.707555771227909, 58.373779022652052 ], [ 26.707612863707375, 58.373696561138154 ], [ 26.707667697300575, 58.373630659551964 ], [ 26.707697843317266, 58.373606019384489 ], [ 26.707777669117224, 58.373552805414882 ], [ 26.707893969217402, 58.37347792317405 ], [ 26.708045660788414, 58.373383718971894 ] ] } },
{ "type": "Feature", "properties": { "label": "ego", "speed": 30.0, "duration": 43.0, "delay": null, "length": null, "width": null, "acceleration": null, "elevation": 62.4 }, "geometry": { "type": "LineString", "coordinates": [ [ 26.707315187100782, 58.374107629816756 ], [ 26.707369978983117, 58.374069399355385 ], [ 26.707454478446643, 58.37398186338239 ], [ 26.707521260961229, 58.373877105278744 ], [ 26.707614098278896, 58.373749703254539 ], [ 26.707699214791614, 58.373651670104998 ], [ 26.707796642296671, 58.373574717871655 ], [ 26.708122436592173, 58.373362619587958 ], [ 26.708421691168745, 58.373176170144504 ], [ 26.708587668390223, 58.373082410885964 ], [ 26.708628529122723, 58.373070931266938 ], [ 26.708733498799674, 58.373069580422097 ], [ 26.708826703813102, 58.373095309405386 ], [ 26.709014465611272, 58.373164336458132 ], [ 26.709398702521895, 58.373304451333169 ] ] } },
{ "type": "Feature", "properties": { "label": "pedestrian", "speed": 4.5, "duration": 43.0, "delay": 13.0, "length": 0.5, "width": 0.5, "acceleration": null, "elevation": 62.4 }, "geometry": { "type": "LineString", "coordinates": [ [ 26.709012451400799, 58.372952829052316 ], [ 26.708910557759403, 58.373027256141853 ], [ 26.708852843968614, 58.373073786712879 ], [ 26.708755233263169, 58.373129775921264 ], [ 26.708684955671732, 58.373161221672142 ], [ 26.708595193056421, 58.373208057962117 ], [ 26.708552464243382, 58.373236297918922 ] ] } },
{ "type": "Feature", "properties": { "label": "cyclist_2", "speed": 15.0, "duration": 43.0, "delay": 12.5, "length": 1.7, "width": 0.8, "acceleration": null, "elevation": 62.4 }, "geometry": { "type": "LineString", "coordinates": [ [ 26.709172934013075, 58.372787670424245 ], [ 26.708926146502332, 58.372942679584298 ], [ 26.708656824587436, 58.373110522563316 ], [ 26.708486189938164, 58.373217860063271 ], [ 26.708280192190887, 58.373347290047093 ], [ 26.708195955546067, 58.373401122829527 ] ] } },
{ "type": "Feature", "properties": { "label": "bus", "speed": 20.0, "duration": 35.0, "delay": null, "length": 8.0, "width": 2.2, "acceleration": null, "elevation": 62.4 }, "geometry": { "type": "LineString", "coordinates": [ [ 26.706991221526092, 58.373870751907191 ], [ 26.707101351058306, 58.373801393724605 ], [ 26.707239360958717, 58.373714594860935 ], [ 26.707302140030119, 58.373681458333799 ], [ 26.707363539774693, 58.373659406324002 ], [ 26.707408124390664, 58.373647736729261 ], [ 26.707456174134265, 58.37364217257489 ], [ 26.707490842198098, 58.373641567538343 ], [ 26.707525983904532, 58.373641866350439 ], [ 26.707589209694852, 58.373646141251761 ], [ 26.707610160190008, 58.373648544635337 ], [ 26.707628976077022, 58.373653525272232 ], [ 26.707647414931603, 58.373661426770461 ], [ 26.707656071070708, 58.373666848361331 ], [ 26.707665416470309, 58.373674630204675 ], [ 26.707673665326862, 58.373689549369907 ], [ 26.707677790808784, 58.37370120677712 ], [ 26.707678831117128, 58.373719585112617 ], [ 26.707678914910353, 58.373739903435805 ], [ 26.707676244432989, 58.373751520462228 ], [ 26.707671302773118, 58.373761407160863 ], [ 26.707656862573728, 58.373782166503247 ], [ 26.707509718108334, 58.37400161238007 ], [ 26.707471554491953, 58.374047540250295 ], [ 26.707419885425391, 58.374093941848507 ], [ 26.707372346057717, 58.374124529973464 ], [ 26.707304174615491, 58.374160236094717 ], [ 26.707229890460962, 58.374185962387834 ] ] } },
{ "type": "Feature", "properties": { "label": "car", "speed": 35.0, "duration": 30.0, "delay": 5.0, "length": null, "width": null, "acceleration": null, "elevation": 62.4 }, "geometry": { "type": "LineString", "coordinates": [ [ 26.708952373460935, 58.372895647317371 ], [ 26.708552903974198, 58.373150498465606 ], [ 26.708361820613792, 58.37327923760936 ], [ 26.708270677052923, 58.373345198633722 ], [ 26.708181064181613, 58.373403264178592 ], [ 26.708022056174709, 58.373495002834822 ], [ 26.707854371950553, 58.373594413875971 ], [ 26.707809823552083, 58.373626810844215 ], [ 26.707753925858395, 58.37366918365656 ], [ 26.707699292542493, 58.373728004302961 ], [ 26.707620679879422, 58.373845743965894 ], [ 26.707574189345515, 58.373908510450086 ] ] } }
]
}
