{
"type": "FeatureCollection",
"name": "straight_traj_collision",
"crs": {"type": "name", "properties": {"name": "urn:ogc:def:crs:OGC:1.3:CRS84"}},
"features": [
{"type": "Feature", "properties": {"label": "pedestrian", "speed": 12.0, "duration": 15.0, "delay": 1.8, "length": 0.75, "width": 0.5, "acceleration": 0.0, "elevation": 34.8}, "geometry": {"type": "LineString", "coordinates": [[26.724245667557984, 58.3826934236787], [26.72382258695472, 58.38263204231517]]}},
{"type": "Feature", "properties": {"label": "ego", "speed": 24.0, "duration": 16.0, "delay": 0.0, "length": 4.9, "width": 2.2, "acceleration": 0.0, "elevation": 34.8}, "geometry": {"type": "LineString", "coordinates": [[26.72411477558265, 58.3823585871092], [26.724100052045188, 58.382397923905025], [26.724087268592744, 58.382441460877835], [26.724078234304045, 58.3824917043703], [26.724059157304215, 58.38255828020294], [26.724032974954746, 58.38261652449864], [26.72398901476614, 58.38269550777738], [26.723919068237404, 58.38283527606737], [26.723862429233375, 58.382938282718406]]}}
]
}
