{
"type": "FeatureCollection",
"name": "straight_traj_collision",
"crs": {"type": "name", "properties": {"name": "urn:ogc:def:crs:OGC:1.3:CRS84"}},
"features": [
{"type": "Feature", "properties": {"label": "large_vehicle", "speed": 20.0, "duration": 16.0, "delay": 1.8, "length": 10.0, "width": 2.7, "acceleration": 0.0, "elevation": 33.9}, "geometry": {"type": "LineString", "coordinates": [[26.72788163128894, 58.385079440080766], [26.727629337467473, 58.384884962403675], [26.72742394883816, 58.38473428236174], [26.727352064469724, 58.38468394301683]]}},
{"type": "Feature", "properties": {"label": "ego", "speed": 24.0, "duration": 16.0, "delay": 0.0, "length": 4.9, "width": 2.2, "acceleration": 0.0, "elevation": 0}, "geometry": {"type": "LineString", "coordinates": [[26.72679081191437, 58.38420512568956], [26.726893078223267, 58.38428246446072], [26.726968728719022, 58.38434035836712], [26.72707270532206, 58.38442795709608], [26.72717529735858, 58.384513149927265], [26.72721726085886, 58.384548477958774], [26.727235695915763, 58.38456340063532], [26.72732551603579, 58.384635401096574], [26.727390665662433, 58.384685828222935], [26.727653942899284, 58.384886890681706], [26.72790499726254, 58.38507222772788]]}}
]
}
