{
"type": "FeatureCollection",
"name": "vaike_turu",
"crs": {"type": "name", "properties": {"name": "urn:ogc:def:crs:EPSG::4979"}},
"features": [
{"type": "Feature", "properties": {"label": "a", "speed": 20.0, "duration": 25.0, "delay": 1.0, "length": 4.0, "width": 2.0, "acceleration": 0.0, "elevation": 33.6}, "geometry": {"type": "LineString", "coordinates": [[26.735325295240475, 58.37713388969589], [26.73502991962566, 58.377308326868125], [26.734702052311693, 58.37749317667271], [26.73436332676432, 58.377681173342125], [26.73384458636271, 58.37793327153071], [26.733208129191144, 58.378218011620994]]}},
{"type": "Feature", "properties": {"label": "ego", "speed": 25.0, "duration": 33.0, "delay": 0.0, "length": 4.0, "width": 2.0, "acceleration": 0.0, "elevation": 33.6}, "geometry": {"type": "LineString", "coordinates": [[26.7338423970853, 58.3771782960586], [26.734302795086393, 58.37738998399134], [26.734518749184275, 58.377502934600805], [26.73452692606647, 58.377536769431195], [26.734485652720853, 58.377600815244655], [26.73438498051127, 58.37766224682342], [26.734206929329794, 58.37775157238643], [26.73409611535839, 58.377849174441224], [26.73375896812364, 58.37800992753774]]}},
{"type": "Feature", "properties": {"label": "bus", "speed": 35.0, "duration": 25.0, "delay": 13.0, "length": 8.0, "width": 2.5, "acceleration": 0.0, "elevation": 33.6}, "geometry": {"type": "LineString", "coordinates": [[26.733702477160335, 58.37794379532133], [26.73409500542835, 58.377765228238616], [26.73435440899542, 58.37764210662888], [26.734655771869658, 58.3774778660447], [26.73506593148055, 58.377248385958445]]}}
]
}
