{
"type": "FeatureCollection",
"name": "yielding_roundabout",
"crs": { "type": "name", "properties": { "name": "urn:ogc:def:crs:OGC:1.3:CRS84" } },
"features": [
{ "type": "Feature", "properties": { "label": "ego", "speed": 23.0, "duration": 28.0, "delay": null, "length": null, "width": null, "acceleration": null, "elevation": 54.5 }, "geometry": { "type": "LineString", "coordinates": [ [ 26.749331594512874, 58.392308028864342 ], [ 26.74963798553533, 58.392187108678108 ], [ 26.749876307563436, 58.392083284871426 ], [ 26.750015778802201, 58.391997151465944 ], [ 26.750137671010119, 58.391881918315114 ], [ 26.750256046644864, 58.391845999082676 ], [ 26.750397294785831, 58.391840854318161 ], [ 26.750497919215839, 58.391894098359636 ], [ 26.750563019289846, 58.391950758288239 ], [ 26.750543084643663, 58.392028029966177 ], [ 26.750390989951587, 58.392089534442313 ], [ 26.750185248679458, 58.392097699604328 ], [ 26.750064326398103, 58.39211194224292 ] ] } },
{ "type": "Feature", "properties": { "label": "car", "speed": 25.0, "duration": 20.0, "delay": 2.9, "length": 4.0, "width": 2.0, "acceleration": null, "elevation": 54.5 }, "geometry": { "type": "LineString", "coordinates": [ [ 26.7505780693559, 58.392231008923588 ], [ 26.750506460590373, 58.392183206013797 ], [ 26.750450515550948, 58.392148772739752 ], [ 26.750388128826753, 58.392125443891402 ], [ 26.750320278671559, 58.392112375959385 ], [ 26.750259332787962, 58.392100804121235 ], [ 26.750195203495434, 58.392081898991862 ], [ 26.750153072606896, 58.392063890698225 ], [ 26.750119024766452, 58.392042418580985 ], [ 26.750089411403138, 58.392017561234994 ], [ 26.750073900563972, 58.391986094857479 ], [ 26.75006605318627, 58.391939111460339 ], [ 26.750062332842194, 58.391891490885257 ], [ 26.750053050124365, 58.391846183254223 ], [ 26.750036376742077, 58.391806517656441 ], [ 26.750003451969768, 58.391772684934921 ], [ 26.749949737419914, 58.391726689458977 ], [ 26.749846307450976, 58.39163241917953 ] ] } }
]
}
