{
"type": "FeatureCollection",
"name": "yielding_1",
"crs": { "type": "name", "properties": { "name": "urn:ogc:def:crs:OGC:1.3:CRS84" } },
"features": [
{ "type": "Feature", "properties": { "label": "ego", "speed": 30.0, "duration": 31.0, "delay": null, "length": null, "width": null, "acceleration": null, "elevation": 35.2 }, "geometry": { "type": "LineString", "coordinates": [ [ 26.724709709167961, 58.386692856103672 ], [ 26.72513368053998, 58.386481415730437 ], [ 26.725353704795136, 58.38639577791411 ], [ 26.725553698408763, 58.386362284644044 ], [ 26.725674696354101, 58.386351477109933 ], [ 26.725792617915555, 58.386365161072241 ], [ 26.725994357702319, 58.386353743219331 ], [ 26.726280608632891, 58.386305835054223 ], [ 26.726529991995303, 58.386324283095803 ], [ 26.726676347366425, 58.386402224670874 ], [ 26.726739458075791, 58.386485404090465 ], [ 26.72679283165947, 58.386656893819925 ] ] } },
{ "type": "Feature", "properties": { "label": "CarA", "speed": 35.0, "duration": 10.0, "delay": 0.0, "length": 4.0, "width": 2.0, "acceleration": null, "elevation": 35.2 }, "geometry": { "type": "LineString", "coordinates": [ [ 26.725768290777857, 58.386593609874012 ], [ 26.725662659119379, 58.38653837950104 ], [ 26.725489461965118, 58.386474478353421 ], [ 26.725402678510875, 58.386440136401703 ], [ 26.725324837605232, 58.386403474379762 ], [ 26.725246215320968, 58.386356715756882 ], [ 26.725114391672019, 58.386264252543079 ], [ 26.725049237003478, 58.386208157628694 ] ] } },
{ "type": "Feature", "properties": { "label": "CarB", "speed": 25.0, "duration": 15.0, "delay": 4.0, "length": 4.0, "width": 2.0, "acceleration": null, "elevation": 35.2 }, "geometry": { "type": "LineString", "coordinates": [ [ 26.725084439121119, 58.386099886496439 ], [ 26.725214304142749, 58.38618014919976 ], [ 26.72531572198552, 58.386233340762104 ], [ 26.725446525687101, 58.386286437147717 ], [ 26.725553546351996, 58.386320346987866 ], [ 26.725659020525605, 58.386347370176885 ], [ 26.725803670135949, 58.386369830862584 ], [ 26.725895545364338, 58.386365207681273 ], [ 26.72601222378016, 58.386353667473102 ], [ 26.726131756365479, 58.386326630202653 ], [ 26.726312330540324, 58.386302547400561 ], [ 26.72644538015081, 58.386306093161629 ], [ 26.72656076796898, 58.386330242507306 ] ] } },
{ "type": "Feature", "properties": { "label": "CarC", "speed": 40.0, "duration": 25.0, "delay": 13.0, "length": 4.0, "width": 2.0, "acceleration": null, "elevation": 35.2 }, "geometry": { "type": "LineString", "coordinates": [ [ 26.726040408573457, 58.386717674616918 ], [ 26.725978064785988, 58.38664555182757 ], [ 26.725945501761036, 58.386565341229662 ], [ 26.725965145290779, 58.386478693073208 ], [ 26.72602385731135, 58.386399194777894 ], [ 26.726152676606411, 58.386321925238697 ], [ 26.726275252048204, 58.386268741323491 ], [ 26.726373994804721, 58.386221921318274 ], [ 26.726443334925637, 58.386161890028156 ], [ 26.72648089530529, 58.386097214690118 ], [ 26.726491570837126, 58.386025661685409 ] ] } },
{ "type": "Feature", "properties": { "label": "CarDa", "speed": 29.0, "duration": 24.0, "delay": 17.0, "length": 4.0, "width": 2.0, "acceleration": -0.90, "elevation": 35.2 }, "geometry": { "type": "LineString", "coordinates": [ [ 26.726579119093852, 58.385945547199853 ], [ 26.726613113883289, 58.3861162140172 ], [ 26.726611891639408, 58.386205130236142 ], [ 26.726604794126793, 58.386257444891349 ] ] } },
{ "type": "Feature", "properties": { "label": "CarDb", "speed": 0.0, "duration": 31.0, "delay": 24.0, "length": 4.0, "width": 2.0, "acceleration": 1.2, "elevation": 35.2 }, "geometry": { "type": "LineString", "coordinates": [ [ 26.726604794126793, 58.386257444889338 ], [ 26.726600410192376, 58.38627936184804 ], [ 26.726602920591407, 58.386311777071974 ], [ 26.726621037683003, 58.386362488618445 ], [ 26.726655279582019, 58.386425098102556 ], [ 26.726685185988075, 58.386484074250298 ], [ 26.726711161309471, 58.386570812718595 ], [ 26.726736495281369, 58.386662355368117 ] ] } }
]
}
